CCSDS_OMM_VERS,COMMENT,CREATION_DATE,ORIGINATOR,OBJECT_NAME,OBJECT_ID,CENTER_NAME,REF_FRAME,TIME_SYSTEM,MEAN_ELEMENT_THEORY,EPOCH,MEAN_MOTION,ECCENTRICITY,INCLINATION,RA_OF_ASC_NODE,ARG_OF_PERICENTER,MEAN_ANOMALY,EPHEMERIS_TYPE,CLASSIFICATION_TYPE,NORAD_CAT_ID,ELEMENT_SET_NO,REV_AT_EPOCH,BSTAR,MEAN_MOTION_DOT,MEAN_MOTION_DDOT,SEMIMAJOR_AXIS,PERIOD,APOAPSIS,PERIAPSIS,OBJECT_TYPE,RCS_SIZE,COUNTRY_CODE,LAUNCH_DATE,SITE,DECAY_DATE,FILE,GP_ID,TLE_LINE0,TLE_LINE1,TLE_LINE2,norad_id
3.0,GENERATED VIA SPACE-TRACK.ORG API,2026-06-03T21:59:02,18 SPCS,GALILEO 16 (26C),2016-069B,EARTH,TEME,UTC,SGP4,2026-06-03 02:34:35.573088+00:00,1.70474020,0.00046934,55.4882,101.4709,352.8898,7.0579,0,U,41860,999,5941,0.00000000000000,0.00000006,0.0000000000000,29600.318,844.703,23236.075,23208.290,PAYLOAD,LARGE,ESA,2016-11-17,FRGUI,,5228922,326927105,0 GALILEO 16 (26C),1 41860U 16069B   26154.10735617  .00000006  00000-0  00000-0 0  9995,2 41860  55.4882 101.4709 0004693 352.8898   7.0579  1.70474020 59412,41860
3.0,GENERATED VIA SPACE-TRACK.ORG API,2026-06-06T17:50:36,18 SPCS,GALILEO 16 (26C),2016-069B,EARTH,TEME,UTC,SGP4,2026-06-06 00:58:02.680320+00:00,1.70473908,0.00046811,55.4899,101.3899,354.1097,5.8552,0,U,41860,999,5946,0.00000000000000,0.00000021,0.0000000000000,29600.331,844.704,23236.052,23208.339,PAYLOAD,LARGE,ESA,2016-11-17,FRGUI,,5233480,327588628,0 GALILEO 16 (26C),1 41860U 16069B   26157.04030880  .00000021  00000-0  00000-0 0  9998,2 41860  55.4899 101.3899 0004681 354.1097   5.8552  1.70473908 59468,41860
3.0,GENERATED VIA SPACE-TRACK.ORG API,2026-06-09T19:23:37,18 SPCS,GALILEO 16 (26C),2016-069B,EARTH,TEME,UTC,SGP4,2026-06-08 23:21:27.776160+00:00,1.70473849,0.00046762,55.4916,101.3087,355.4065,4.5623,0,U,41860,999,5951,0.00000000000000,0.00000024,0.0000000000000,29600.338,844.704,23236.044,23208.361,PAYLOAD,LARGE,ESA,2016-11-17,FRGUI,,5240046,328408869,0 GALILEO 16 (26C),1 41860U 16069B   26159.97323815  .00000024  00000-0  00000-0 0  9998,2 41860  55.4916 101.3087 0004676 355.4065   4.5623  1.70473849 59515,41860
3.0,GENERATED VIA SPACE-TRACK.ORG API,2026-06-10T11:00:42,18 SPCS,GALILEO 16 (26C),2016-069B,EARTH,TEME,UTC,SGP4,2026-06-09 13:26:08.510208+00:00,1.70473816,0.00046784,55.4919,101.2925,355.5007,4.4663,0,U,41860,999,5952,0.00000000000000,0.00000022,0.0000000000000,29600.341,844.705,23236.055,23208.358,PAYLOAD,LARGE,ESA,2016-11-17,FRGUI,,5240916,328556088,0 GALILEO 16 (26C),1 41860U 16069B   26160.55982072  .00000022  00000-0  00000-0 0  9998,2 41860  55.4919 101.2925 0004678 355.5007   4.4663  1.70473816 59525,41860
3.0,GENERATED VIA SPACE-TRACK.ORG API,2026-06-10T17:34:46,18 SPCS,GALILEO 16 (26C),2016-069B,EARTH,TEME,UTC,SGP4,2026-06-10 03:30:48.933216+00:00,1.70473868,0.00046789,55.4922,101.2762,355.7318,4.2331,0,U,41860,999,5953,0.00000000000000,0.00000018,0.0000000000000,29600.335,844.704,23236.050,23208.351,PAYLOAD,LARGE,ESA,2016-11-17,FRGUI,,5241716,328662658,0 GALILEO 16 (26C),1 41860U 16069B   26161.14639969  .00000018  00000-0  00000-0 0  9993,2 41860  55.4922 101.2762 0004679 355.7318   4.2331  1.70473868 59534,41860
3.0,GENERATED VIA SPACE-TRACK.ORG API,2026-06-13T10:14:27,18 SPCS,GALILEO 16 (26C),2016-069B,EARTH,TEME,UTC,SGP4,2026-06-12 11:49:31.821024+00:00,1.70473717,0.00046589,55.4937,101.2113,357.7539,2.2023,0,U,41860,999,5957,0.00000000000000,0.00000000,0.0000000000000,29600.353,844.705,23236.008,23208.427,PAYLOAD,LARGE,ESA,2016-11-17,FRGUI,,5243522,328981521,0 GALILEO 16 (26C),1 41860U 16069B   26163.49272941  .00000000  00000-0  00000-0 0  9997,2 41860  55.4937 101.2113 0004659 357.7539   2.2023  1.70473717 59578,41860
3.0,GENERATED VIA SPACE-TRACK.ORG API,2026-06-13T23:16:58,18 SPCS,GALILEO 16 (26C),2016-069B,EARTH,TEME,UTC,SGP4,2026-06-13 01:54:12.453984+00:00,1.70473740,0.00046530,55.4941,101.1951,357.9149,2.0398,0,U,41860,999,5958,0.00000000000000,-0.00000004,0.0000000000000,29600.350,844.705,23235.988,23208.442,PAYLOAD,LARGE,ESA,2016-11-17,FRGUI,,5244976,329133663,0 GALILEO 16 (26C),1 41860U 16069B   26164.07931081 -.00000004  00000-0  00000+0 0  9993,2 41860  55.4941 101.1951 0004653 357.9149   2.0398  1.70473740 59585,41860
3.0,GENERATED VIA SPACE-TRACK.ORG API,2026-06-14T05:02:57,18 SPCS,GALILEO 16 (26C),2016-069B,EARTH,TEME,UTC,SGP4,2026-06-13 01:54:12.454848+00:00,1.70473740,0.00046533,55.4941,101.1951,357.9149,2.0398,0,U,41860,999,5958,0.00000000000000,-0.00000004,0.0000000000000,29600.350,844.705,23235.989,23208.441,PAYLOAD,LARGE,ESA,2016-11-17,FRGUI,,5245182,329203954,0 GALILEO 16 (26C),1 41860U 16069B   26164.07931082 -.00000004  00000-0  00000-0 0  9995,2 41860  55.4941 101.1951 0004653 357.9149   2.0398  1.70473740 59585,41860
3.0,GENERATED VIA SPACE-TRACK.ORG API,2026-06-15T02:25:05,18 SPCS,GALILEO 16 (26C),2016-069B,EARTH,TEME,UTC,SGP4,2026-06-14 06:03:34.358400+00:00,1.70473713,0.00046425,55.4947,101.1626,358.3825,1.5720,0,U,41860,999,5960,0.00000000000000,-0.00000011,0.0000000000000,29600.353,844.705,23235.960,23208.476,PAYLOAD,LARGE,ESA,2016-11-17,FRGUI,,5247531,329530930,0 GALILEO 16 (26C),1 41860U 16069B   26165.25248100 -.00000011  00000-0  00000-0 0  9996,2 41860  55.4947 101.1626 0004642 358.3825   1.5720  1.70473713 59600,41860
3.0,GENERATED VIA SPACE-TRACK.ORG API,2026-06-17T17:43:15,18 SPCS,GALILEO 16 (26C),2016-069B,EARTH,TEME,UTC,SGP4,2026-06-17 04:27:01.265184+00:00,1.70473702,0.00046204,55.4965,101.0814,0.5608,359.4079,0,U,41860,999,5965,0.00000000000000,-0.00000013,0.0000000000000,29600.355,844.705,23235.896,23208.543,PAYLOAD,LARGE,ESA,2016-11-17,FRGUI,,5252865,330229080,0 GALILEO 16 (26C),1 41860U 16069B   26168.18543131 -.00000013  00000-0  00000-0 0  9995,2 41860  55.4965 101.0814 0004620   0.5608 359.4079  1.70473702 59654,41860
3.0,GENERATED VIA SPACE-TRACK.ORG API,2026-06-19T11:14:33,18 SPCS,GALILEO 16 (26C),2016-069B,EARTH,TEME,UTC,SGP4,2026-06-18 22:41:05.677440+00:00,1.70473680,0.00046071,55.4975,101.0327,1.4092,358.5693,0,U,41860,999,5968,0.00000000000000,-0.00000012,0.0000000000000,29600.357,844.705,23235.859,23208.585,PAYLOAD,LARGE,ESA,2016-11-17,FRGUI,,5255912,330687846,0 GALILEO 16 (26C),1 41860U 16069B   26169.94520460 -.00000012  00000-0  00000-0 0  9999,2 41860  55.4975 101.0327 0004607   1.4092 358.5693  1.70473680 59686,41860
3.0,GENERATED VIA SPACE-TRACK.ORG API,2026-06-23T03:40:42,18 SPCS,GALILEO 16 (26C),2016-069B,EARTH,TEME,UTC,SGP4,2026-06-22 11:09:12.531168+00:00,1.70473711,0.00045534,55.4994,100.9352,5.8604,354.1239,0,U,41860,999,5974,0.00000000000000,-0.00000027,0.0000000000000,29600.354,844.705,23235.697,23208.740,PAYLOAD,LARGE,ESA,2016-11-17,FRGUI,,5257616,330960995,0 GALILEO 16 (26C),1 41860U 16069B   26173.46472837 -.00000027  00000-0  00000-0 0  9991,2 41860  55.4994 100.9352 0004553   5.8604 354.1239  1.70473711 59740,41860
3.0,GENERATED VIA SPACE-TRACK.ORG API,2026-06-24T02:28:56,18 SPCS,GALILEO 16 (26C),2016-069B,EARTH,TEME,UTC,SGP4,2026-06-23 15:18:34.835616+00:00,1.70473709,0.00045345,55.5001,100.9027,9.5312,350.4536,0,U,41860,999,5976,0.00000000000000,-0.00000034,0.0000000000000,29600.354,844.705,23235.641,23208.796,PAYLOAD,LARGE,ESA,2016-11-17,FRGUI,,5257684,331030187,0 GALILEO 16 (26C),1 41860U 16069B   26174.63790319 -.00000034  00000-0  00000-0 0  9997,2 41860  55.5001 100.9027 0004535   9.5312 350.4536  1.70473709 59764,41860
3.0,GENERATED VIA SPACE-TRACK.ORG API,2026-05-16T10:38:26,18 SPCS,QZS-2,2017-028A,EARTH,TEME,UTC,SGP4,2026-05-15 14:49:38.867808+00:00,1.00292474,0.07623408,39.4779,243.6336,268.9240,83.1436,0,U,42738,999,730,0.00000000000000,-0.00000183,0.0000000000000,42158.933,1435.801,38994.746,32566.850,PAYLOAD,LARGE,JPN,2017-06-01,TNSTA,,5196540,323438950,0 QZS-2,1 42738U 17028A   26135.61781097 -.00000183  00000-0  00000-0 0  9991,2 42738  39.4779 243.6336 0762341 268.9240  83.1436  1.00292474  7300,42738
3.0,GENERATED VIA SPACE-TRACK.ORG API,2026-05-18T10:14:28,18 SPCS,QZS-2,2017-028A,EARTH,TEME,UTC,SGP4,2026-05-17 14:43:23.609280+00:00,1.00291921,0.07622233,39.4747,243.6045,268.9413,83.6963,0,U,42738,999,732,0.00000000000000,-0.00000182,0.0000000000000,42159.088,1435.809,38994.417,32567.489,PAYLOAD,LARGE,JPN,2017-06-01,TNSTA,,5201404,323690304,0 QZS-2,1 42738U 17028A   26137.61346770 -.00000182  00000-0  00000-0 0  9997,2 42738  39.4747 243.6045 0762223 268.9413  83.6963  1.00291921  7321,42738
3.0,GENERATED VIA SPACE-TRACK.ORG API,2026-05-18T23:26:32,18 SPCS,QZS-2,2017-028A,EARTH,TEME,UTC,SGP4,2026-05-18 14:36:32.385024+00:00,1.00291579,0.07616400,39.4728,243.5900,268.9537,83.0393,0,U,42738,999,733,0.00000000000000,-0.00000187,0.0000000000000,42159.184,1435.813,38992.061,32570.037,PAYLOAD,LARGE,JPN,2017-06-01,TNSTA,,5202527,323734060,0 QZS-2,1 42738U 17028A   26138.60870816 -.00000187  00000-0  00000+0 0  9994,2 42738  39.4728 243.5900 0761640 268.9537  83.0393  1.00291579  7339,42738
3.0,GENERATED VIA SPACE-TRACK.ORG API,2026-05-19T02:42:52,18 SPCS,QZS-2,2017-028A,EARTH,TEME,UTC,SGP4,2026-05-18 14:36:32.385888+00:00,1.00291579,0.07616398,39.4728,243.5900,268.9538,83.0393,0,U,42738,999,733,0.00000000000000,-0.00000187,0.0000000000000,42159.184,1435.813,38992.060,32570.038,PAYLOAD,LARGE,JPN,2017-06-01,TNSTA,,5203002,323760026,0 QZS-2,1 42738U 17028A   26138.60870817 -.00000187  00000-0  00000-0 0  9996,2 42738  39.4728 243.5900 0761640 268.9538  83.0393  1.00291579  7330,42738
3.0,GENERATED VIA SPACE-TRACK.ORG API,2026-05-21T03:02:41,18 SPCS,QZS-2,2017-028A,EARTH,TEME,UTC,SGP4,2026-05-20 14:27:38.627424+00:00,1.00291062,0.07612680,39.4697,243.5610,268.9737,82.9237,0,U,42738,999,735,0.00000000000000,-0.00000207,0.0000000000000,42159.329,1435.821,38990.649,32571.739,PAYLOAD,LARGE,JPN,2017-06-01,TNSTA,,5207306,324027690,0 QZS-2,1 42738U 17028A   26140.60253041 -.00000207  00000-0  00000-0 0  9996,2 42738  39.4697 243.5610 0761268 268.9737  82.9237  1.00291062  7354,42738
